NORAD_CAT_ID,OBJECT_NAME,OBJECT_TYPE,EPOCH,MEAN_MOTION,ECCENTRICITY,INCLINATION,RA_OF_ASC_NODE,ARG_OF_PERICENTER,MEAN_ANOMALY,BSTAR,MEAN_MOTION_DOT,MEAN_MOTION_DDOT,TLE_LINE0,TLE_LINE1,TLE_LINE2,SEMIMAJOR_AXIS,PERIOD,APOGEE,PERIGEE,DECAYED
52554.0,STARLINK-3770,PAYLOAD,2023-02-23 07:48:40,15.08847962,0.0001446,53.2156,78.7446,109.398,250.7168,0.00066702,0.00010346,0.0,0 STARLINK-3770,1 52554U 22051X   23054.32546531  .00010346  00000-0  66702-3 0  9992,2 52554  53.2156  78.7446 0001446 109.3980 250.7168 15.08847962 43743,6917.856,95.437,540.721,538.721,0.0
52554.0,STARLINK-3770,PAYLOAD,2023-02-23 18:56:22,15.0883996,0.000146,53.2149,76.6644,83.4087,276.7071,0.00039933,6.073e-05,0.0,0 STARLINK-3770,1 52554U 22051X   23054.78914909  .00006073  00000-0  39933-3 0  9998,2 52554  53.2149  76.6644 0001460  83.4087 276.7071 15.08839960 43883,6917.881,95.438,540.756,538.736,0.0
52554.0,STARLINK-3770,PAYLOAD,2023-02-24 12:25:36,15.08853152,0.0001485,53.2153,73.3927,88.3287,271.7875,0.00043643,6.667e-05,0.0,0 STARLINK-3770,1 52554U 22051X   23055.51778378  .00006667  00000-0  43643-3 0  9990,2 52554  53.2153  73.3927 0001485  88.3287 271.7875 15.08853152 43920,6917.84,95.437,540.732,538.678,0.0
52554.0,STARLINK-3770,PAYLOAD,2023-02-24 18:47:09,15.08835138,0.0001333,53.2155,72.2033,89.3618,270.7527,7.8432e-06,-1.63e-06,0.0,0 STARLINK-3770,1 52554U 22051X   23055.78274946 -.00000163  00000-0  78432-5 0  9993,2 52554  53.2155  72.2033 0001333  89.3618 270.7527 15.08835138 44039,6917.895,95.438,540.682,538.838,0.0
52554.0,STARLINK-3770,PAYLOAD,2023-02-25 12:16:24,15.08840672,0.0001479,53.2151,68.9319,96.5553,263.5608,0.00018453,2.65e-05,0.0,0 STARLINK-3770,1 52554U 22051X   23056.51139125  .00002650  00000-0  18453-3 0  9991,2 52554  53.2151  68.9319 0001479  96.5553 263.5608 15.08840672 44076,6917.878,95.438,540.766,538.72,0.0
52554.0,STARLINK-3770,PAYLOAD,2023-02-26 04:10:15,15.08852648,0.0001543,53.2148,65.9587,96.6727,263.4441,0.0006768,0.00010503,0.0,0 STARLINK-3770,1 52554U 22051X   23057.17379043  .00010503  00000-0  67680-3 0  9991,2 52554  53.2148  65.9587 0001543  96.6727 263.4441 15.08852648 44241,6917.842,95.437,540.774,538.639,0.0
52554.0,STARLINK-3770,PAYLOAD,2023-02-26 12:07:10,15.08865035,0.0001447,53.2162,64.4722,96.5748,263.5409,0.0010304,0.0001616,0.0,0 STARLINK-3770,1 52554U 22051X   23057.50498661  .00016160  00000-0  10304-2 0  9991,2 52554  53.2162  64.4722 0001447  96.5748 263.5409 15.08865035 44224,6917.804,95.436,540.67,538.668,0.0
52554.0,STARLINK-3770,PAYLOAD,2023-02-26 16:53:20,15.08841793,0.0001185,53.2168,63.5804,91.0738,269.0389,4.7937e-05,4.75e-06,0.0,0 STARLINK-3770,1 52554U 22051X   23057.70370989  .00000475  00000-0  47937-4 0  9991,2 52554  53.2168  63.5804 0001185  91.0738 269.0389 15.08841793 44323,6917.875,95.437,540.56,538.92,0.0
52554.0,STARLINK-3770,PAYLOAD,2023-02-27 05:36:25,15.08844042,0.0001485,53.2166,61.202,85.8634,274.2528,0.00039901,6.069e-05,0.0,0 STARLINK-3770,1 52554U 22051X   23058.23363253  .00006069  00000-0  39901-3 0  9992,2 52554  53.2166  61.2020 0001485  85.8634 274.2528 15.08844042 44339,6917.868,95.437,540.76,538.706,0.0
52554.0,STARLINK-3770,PAYLOAD,2023-02-27 16:44:07,15.08878108,0.0001217,53.2162,59.1196,97.2211,262.8919,0.0020363,0.00032302,0.0,0 STARLINK-3770,1 52554U 22051X   23058.69730700  .00032302  00000-0  20363-2 0  9997,2 52554  53.2162  59.1196 0001217  97.2211 262.8919 15.08878108 44478,6917.764,95.435,540.471,538.787,0.0
52554.0,STARLINK-3770,PAYLOAD,2023-02-28 10:13:20,15.08906613,0.0001109,53.2159,55.8478,95.8881,264.2238,0.0019241,0.00030523,0.0,0 STARLINK-3770,1 52554U 22051X   23059.42592712  .00030523  00000-0  19241-2 0  9994,2 52554  53.2159  55.8478 0001109  95.8881 264.2238 15.08906613 44515,6917.677,95.433,540.309,538.775,0.0
52554.0,STARLINK-3770,PAYLOAD,2023-02-28 16:34:53,15.08797567,0.0001937,53.2157,54.6587,81.5304,278.5908,0.00051358,7.886e-05,0.0,0 STARLINK-3770,1 52554U 22051X   23059.69089650  .00007886  00000-0  51358-3 0  9997,2 52554  53.2157  54.6587 0001937  81.5304 278.5908 15.08797567 44554,6918.01,95.44,541.215,538.535,0.0
52554.0,STARLINK-3770,PAYLOAD,2023-03-01 03:42:37,15.08788038,0.0001835,53.216,52.5775,97.2749,262.8452,0.0006976,0.00010816,0.0,0 STARLINK-3770,1 52554U 22051X   23060.15459954  .00010816  00000-0  69760-3 0  9991,2 52554  53.2160  52.5775 0001835  97.2749 262.8452 15.08788038 44696,6918.039,95.441,541.174,538.635,0.0
52554.0,STARLINK-3770,PAYLOAD,2023-03-01 16:25:43,15.08817619,0.0001084,53.2157,50.1998,109.0135,251.0974,0.0015771,0.00024885,0.0,0 STARLINK-3770,1 52554U 22051X   23060.68452875  .00024885  00000-0  15771-2 0  9997,2 52554  53.2157  50.1998 0001084 109.0135 251.0974 15.08817619 44776,6917.949,95.439,540.564,539.064,0.0
52554.0,STARLINK-3770,PAYLOAD,2023-03-02 16:16:30,15.08862173,0.0002036,53.2169,45.737,91.0759,269.0467,0.00083339,0.00013008,0.0,0 STARLINK-3770,1 52554U 22051X   23061.67812631  .00013008  00000-0  83339-3 0  9998,2 52554  53.2169  45.7370 0002036  91.0759 269.0467 15.08862173 44853,6917.813,95.436,541.086,538.269,0.0
52554.0,STARLINK-3770,PAYLOAD,2023-03-03 09:45:43,15.08887983,0.0002383,53.2165,42.4656,92.7817,267.3448,0.0012046,0.00018961,0.0,0 STARLINK-3770,1 52554U 22051X   23062.40675276  .00018961  00000-0  12046-2 0  9991,2 52554  53.2165  42.4656 0002383  92.7817 267.3448 15.08887983 45035,6917.734,95.435,541.247,537.95,0.0
52554.0,STARLINK-3770,PAYLOAD,2023-03-03 16:07:16,15.08850571,0.0002096,53.2168,41.2769,95.2397,264.8834,8.8482e-05,1.121e-05,0.0,0 STARLINK-3770,1 52554U 22051X   23062.67171661  .00001121  00000-0  88482-4 0  9998,2 52554  53.2168  41.2769 0002096  95.2397 264.8834 15.08850571 45070,6917.848,95.437,541.163,538.263,0.0
52554.0,STARLINK-3770,PAYLOAD,2023-03-04 04:50:20,15.08878321,0.0001611,53.2164,38.898,95.5799,264.5377,0.0025756,0.00040985,0.0,0 STARLINK-3770,1 52554U 22051X   23063.20162712  .00040985  00000-0  25756-2 0  9999,2 52554  53.2164  38.8980 0001611  95.5799 264.5377 15.08878321 45155,6917.763,95.435,540.743,538.514,0.0
52554.0,STARLINK-3770,PAYLOAD,2023-03-04 09:36:29,15.0889237,0.0001651,53.2175,38.0053,94.5714,265.5467,0.0025724,0.00040949,0.0,0 STARLINK-3770,1 52554U 22051X   23063.40034129  .00040949  00000-0  25724-2 0  9996,2 52554  53.2175  38.0053 0001651  94.5714 265.5467 15.08892370 45117,6917.72,95.434,540.727,538.443,0.0
52554.0,STARLINK-3770,PAYLOAD,2023-03-04 22:19:36,15.08826277,0.0002866,53.2171,35.6269,77.6881,282.4432,0.00049764,7.638e-05,0.0,0 STARLINK-3770,1 52554U 22051X   23063.93027922  .00007638  00000-0  49764-3 0  9996,2 52554  53.2171  35.6269 0002866  77.6881 282.4432 15.08826277 45260,6917.922,95.438,541.77,537.805,0.0
52554.0,STARLINK-3770,PAYLOAD,2023-03-05 07:51:55,15.08827765,0.0001938,53.2187,33.8433,77.7113,282.4096,0.0022579,0.00035818,0.0,0 STARLINK-3770,1 52554U 22051X   23064.32772764  .00035818  00000-0  22579-2 0  9996,2 52554  53.2187  33.8433 0001938  77.7113 282.4096 15.08827765 45256,6917.918,95.438,541.123,538.442,0.0
52554.0,STARLINK-3770,PAYLOAD,2023-03-06 04:31:55,15.08896682,0.0001856,53.218,29.9778,81.3278,278.7924,0.0027256,0.00043425,0.0,0 STARLINK-3770,1 52554U 22051X   23065.18883615  .00043425  00000-0  27256-2 0  9999,2 52554  53.2180  29.9778 0001856  81.3278 278.7924 15.08896682 45453,6917.707,95.434,540.856,538.288,0.0
52554.0,STARLINK-3770,PAYLOAD,2023-03-06 20:25:46,15.08859585,0.0002032,53.2181,27.0049,80.9991,279.1231,0.0010081,0.00015801,0.0,0 STARLINK-3770,1 52554U 22051X   23065.85123672  .00015801  00000-0  10081-2 0  9998,2 52554  53.2181  27.0049 0002032  80.9991 279.1231 15.08859585 45556,6917.821,95.436,541.091,538.28,0.0
52554.0,STARLINK-3770,PAYLOAD,2023-03-06 22:01:10,15.08834308,0.0001044,53.2182,26.7066,342.8429,17.2528,0.00053602,8.252e-05,0.0,0 STARLINK-3770,1 52554U 22051X   23065.91747739  .00008252  00000-0  53602-3 0  9990,2 52554  53.2182  26.7066 0001044 342.8429  17.2528 15.08834308 45499,6917.898,95.438,540.485,539.041,0.0
52554.0,STARLINK-3770,PAYLOAD,2023-03-07 04:22:42,15.08840852,7.16e-05,53.2164,25.5163,78.7367,281.3706,0.0022813,0.00036206,0.0,0 STARLINK-3770,1 52554U 22051X   23066.18243943  .00036206  00000-0  22813-2 0  9997,2 52554  53.2164  25.5163 0000716  78.7367 281.3706 15.08840852 45601,6917.878,95.438,540.238,539.247,0.0
52554.0,STARLINK-3770,PAYLOAD,2023-03-07 07:33:28,15.08854165,7.7e-05,53.2163,24.9212,75.9717,284.136,0.0026441,0.0004206,0.0,0 STARLINK-3770,1 52554U 22051X   23066.31491887  .00042060  00000-0  26441-2 0  9990,2 52554  53.2163  24.9212 0000770  75.9717 284.1360 15.08854165 45559,6917.837,95.437,540.235,539.169,0.0
52554.0,STARLINK-3770,PAYLOAD,2023-03-08 04:13:30,15.08855257,0.0001229,53.2169,21.0576,98.7752,261.338,0.0017339,0.00027426,0.0,0 STARLINK-3770,1 52554U 22051X   23067.17604194  .00027426  00000-0  17339-2 0  9997,2 52554  53.2169  21.0576 0001229  98.7752 261.3380 15.08855257 45752,6917.834,95.437,540.549,538.849,0.0
52554.0,STARLINK-3770,PAYLOAD,2023-03-09 04:04:17,15.08837583,9.78e-05,53.2169,16.5969,113.792,246.3175,0.00070668,0.00010976,0.0,0 STARLINK-3770,1 52554U 22051X   23068.16964603  .00010976  00000-0  70668-3 0  9998,2 52554  53.2169  16.5969 0000978 113.7920 246.3175 15.08837583 45906,6917.888,95.438,540.429,539.076,0.0
52554.0,STARLINK-3770,PAYLOAD,2023-03-10 03:55:03,15.08885068,0.0001187,53.2175,12.1362,86.5681,273.5447,0.0017999,0.00028509,0.0,0 STARLINK-3770,1 52554U 22051X   23069.16324009  .00028509  00000-0  17999-2 0  9997,2 52554  53.2175  12.1362 0001187  86.5681 273.5447 15.08885068 46058,6917.743,95.435,540.429,538.787,0.0
52554.0,STARLINK-3770,PAYLOAD,2023-03-10 13:27:22,15.08851327,0.0001405,53.2183,10.3503,79.5582,280.5568,0.00022807,3.345e-05,0.0,0 STARLINK-3770,1 52554U 22051X   23069.56067868  .00003345  00000-0  22807-3 0  9994,2 52554  53.2183  10.3503 0001405  79.5582 280.5568 15.08851327 46119,6917.846,95.437,540.683,538.739,0.0
